{
 "generated_at": "2026-07-19T07:26:41Z",
 "sources": [
  {
   "name": "CelesTrak",
   "url": "https://celestrak.org/NORAD/elements/",
   "license": "frei verfügbar; Attribution. Ursprünglich USSPACECOM/Space-Track."
  },
  {
   "name": "GCAT (J. McDowell, planet4589.org)",
   "url": "https://planet4589.org/space/gcat/",
   "license": "CC-BY 4.0"
  }
 ],
 "satellites": [
  {
   "norad": 39419,
   "name": "DUBAISAT-2",
   "intl": "2013-066D",
   "group": "resource",
   "gcat": {
    "class": "C",
    "category": "IMG",
    "owner": "EIAST",
    "state": "UAE"
   },
   "omm": {
    "OBJECT_NAME": "DUBAISAT-2",
    "OBJECT_ID": "2013-066D",
    "EPOCH": "2026-07-18T20:56:45.480768",
    "MEAN_MOTION": 15.10386416,
    "ECCENTRICITY": 0.0009139,
    "INCLINATION": 97.4581,
    "RA_OF_ASC_NODE": 189.1938,
    "ARG_OF_PERICENTER": 288.6106,
    "MEAN_ANOMALY": 71.4131,
    "EPHEMERIS_TYPE": 0,
    "CLASSIFICATION_TYPE": "U",
    "NORAD_CAT_ID": 39419,
    "ELEMENT_SET_NO": 999,
    "REV_AT_EPOCH": 69117,
    "BSTAR": 0.000074473,
    "MEAN_MOTION_DOT": 0.00001161,
    "MEAN_MOTION_DDOT": 0
   }
  },
  {
   "norad": 41105,
   "name": "ELEKTRO-L 2",
   "intl": "2015-074A",
   "group": "weather",
   "gcat": {
    "class": "C",
    "category": "MET",
    "owner": "RGMS/NPOLO",
    "state": "RU"
   },
   "omm": {
    "OBJECT_NAME": "ELEKTRO-L 2",
    "OBJECT_ID": "2015-074A",
    "EPOCH": "2026-07-18T09:44:02.508576",
    "MEAN_MOTION": 1.00272087,
    "ECCENTRICITY": 0.00009578,
    "INCLINATION": 6.7707,
    "RA_OF_ASC_NODE": 70.1389,
    "ARG_OF_PERICENTER": 220.4397,
    "MEAN_ANOMALY": 137.1429,
    "EPHEMERIS_TYPE": 0,
    "CLASSIFICATION_TYPE": "U",
    "NORAD_CAT_ID": 41105,
    "ELEMENT_SET_NO": 999,
    "REV_AT_EPOCH": 3881,
    "BSTAR": 0,
    "MEAN_MOTION_DOT": -0.00000128,
    "MEAN_MOTION_DDOT": 0
   }
  },
  {
   "norad": 51656,
   "name": "EOS-4",
   "intl": "2022-013A",
   "group": "sar",
   "gcat": {
    "class": "C",
    "category": "IMG-R",
    "owner": "ISRO",
    "state": "IN"
   },
   "omm": {
    "OBJECT_NAME": "EOS-4",
    "OBJECT_ID": "2022-013A",
    "EPOCH": "2026-07-18T20:23:57.107328",
    "MEAN_MOTION": 15.12726523,
    "ECCENTRICITY": 0.0002126,
    "INCLINATION": 97.5114,
    "RA_OF_ASC_NODE": 206.0159,
    "ARG_OF_PERICENTER": 88.6113,
    "MEAN_ANOMALY": 271.5361,
    "EPHEMERIS_TYPE": 0,
    "CLASSIFICATION_TYPE": "U",
    "NORAD_CAT_ID": 51656,
    "ELEMENT_SET_NO": 999,
    "REV_AT_EPOCH": 24427,
    "BSTAR": 0.000023368,
    "MEAN_MOTION_DOT": 0.00000345,
    "MEAN_MOTION_DDOT": 0
   }
  },
  {
   "norad": 36411,
   "name": "EWS-G2 (GOES 15)",
   "intl": "2010-008A",
   "group": "weather",
   "gcat": {
    "class": "C",
    "category": "MET",
    "owner": "NOAA",
    "state": "US"
   },
   "omm": {
    "OBJECT_NAME": "EWS-G2 (GOES 15)",
    "OBJECT_ID": "2010-008A",
    "EPOCH": "2026-07-18T21:16:40.963008",
    "MEAN_MOTION": 1.00269288,
    "ECCENTRICITY": 0.0005366,
    "INCLINATION": 1.363,
    "RA_OF_ASC_NODE": 82.4212,
    "ARG_OF_PERICENTER": 53.9943,
    "MEAN_ANOMALY": 182.7078,
    "EPHEMERIS_TYPE": 0,
    "CLASSIFICATION_TYPE": "U",
    "NORAD_CAT_ID": 36411,
    "ELEMENT_SET_NO": 999,
    "REV_AT_EPOCH": 5995,
    "BSTAR": 0,
    "MEAN_MOTION_DOT": 1.6e-7,
    "MEAN_MOTION_DDOT": 0
   }
  },
  {
   "norad": 35491,
   "name": "EWS-G3 (GOES 14)",
   "intl": "2009-033A",
   "group": "weather",
   "gcat": {
    "class": "C",
    "category": "MET",
    "owner": "NOAA",
    "state": "US"
   },
   "omm": {
    "OBJECT_NAME": "EWS-G3 (GOES 14)",
    "OBJECT_ID": "2009-033A",
    "EPOCH": "2026-07-18T17:13:50.338272",
    "MEAN_MOTION": 1.00096577,
    "ECCENTRICITY": 0.000206,
    "INCLINATION": 1.7692,
    "RA_OF_ASC_NODE": 82.6512,
    "ARG_OF_PERICENTER": 39.5281,
    "MEAN_ANOMALY": 195.658,
    "EPHEMERIS_TYPE": 0,
    "CLASSIFICATION_TYPE": "U",
    "NORAD_CAT_ID": 35491,
    "ELEMENT_SET_NO": 999,
    "REV_AT_EPOCH": 690,
    "BSTAR": 0,
    "MEAN_MOTION_DOT": -0.00000367,
    "MEAN_MOTION_DDOT": 0
   }
  },
  {
   "norad": 38709,
   "name": "EXACTVIEW-1 (ADS-1B)",
   "intl": "2012-039C",
   "group": "resource",
   "gcat": {
    "class": "B",
    "category": "COM",
    "owner": "EXEA",
    "state": "CA"
   },
   "omm": {
    "OBJECT_NAME": "EXACTVIEW-1 (ADS-1B)",
    "OBJECT_ID": "2012-039C",
    "EPOCH": "2026-07-18T18:25:15.946752",
    "MEAN_MOTION": 14.24992745,
    "ECCENTRICITY": 0.0011944,
    "INCLINATION": 98.9809,
    "RA_OF_ASC_NODE": 317.8756,
    "ARG_OF_PERICENTER": 82.2216,
    "MEAN_ANOMALY": 278.0318,
    "EPHEMERIS_TYPE": 0,
    "CLASSIFICATION_TYPE": "U",
    "NORAD_CAT_ID": 38709,
    "ELEMENT_SET_NO": 999,
    "REV_AT_EPOCH": 72720,
    "BSTAR": 0.000036924,
    "MEAN_MOTION_DOT": 4e-7,
    "MEAN_MOTION_DDOT": 0
   }
  },
  {
   "norad": 40367,
   "name": "FENGYUN 2G",
   "intl": "2014-090A",
   "group": "weather",
   "gcat": {
    "class": "C",
    "category": "MET",
    "owner": "NSMC",
    "state": "CN"
   },
   "omm": {
    "OBJECT_NAME": "FENGYUN 2G",
    "OBJECT_ID": "2014-090A",
    "EPOCH": "2026-07-18T13:41:54.599712",
    "MEAN_MOTION": 1.00279546,
    "ECCENTRICITY": 0.0004026,
    "INCLINATION": 5.7165,
    "RA_OF_ASC_NODE": 72.4368,
    "ARG_OF_PERICENTER": 174.2061,
    "MEAN_ANOMALY": 354.6234,
    "EPHEMERIS_TYPE": 0,
    "CLASSIFICATION_TYPE": "U",
    "NORAD_CAT_ID": 40367,
    "ELEMENT_SET_NO": 999,
    "REV_AT_EPOCH": 4231,
    "BSTAR": 0,
    "MEAN_MOTION_DOT": -0.00000311,
    "MEAN_MOTION_DDOT": 0
   }
  },
  {
   "norad": 43491,
   "name": "FENGYUN 2H",
   "intl": "2018-050A",
   "group": "weather",
   "gcat": {
    "class": "C",
    "category": "MET",
    "owner": "NSMC",
    "state": "CN"
   },
   "omm": {
    "OBJECT_NAME": "FENGYUN 2H",
    "OBJECT_ID": "2018-050A",
    "EPOCH": "2026-07-18T18:46:38.786304",
    "MEAN_MOTION": 1.00266889,
    "ECCENTRICITY": 0.0002207,
    "INCLINATION": 3.111,
    "RA_OF_ASC_NODE": 78.7054,
    "ARG_OF_PERICENTER": 132.7913,
    "MEAN_ANOMALY": 85.8178,
    "EPHEMERIS_TYPE": 0,
    "CLASSIFICATION_TYPE": "U",
    "NORAD_CAT_ID": 43491,
    "ELEMENT_SET_NO": 999,
    "REV_AT_EPOCH": 2975,
    "BSTAR": 0,
    "MEAN_MOTION_DOT": -0.00000134,
    "MEAN_MOTION_DDOT": 0
   }
  },
  {
   "norad": 32958,
   "name": "FENGYUN 3A",
   "intl": "2008-026A",
   "group": "weather",
   "gcat": {
    "class": null,
    "category": null,
    "owner": null,
    "state": null
   },
   "omm": {
    "OBJECT_NAME": "FENGYUN 3A",
    "OBJECT_ID": "2008-026A",
    "EPOCH": "2026-07-18T20:02:52.552608",
    "MEAN_MOTION": 14.19576918,
    "ECCENTRICITY": 0.0009527,
    "INCLINATION": 98.6886,
    "RA_OF_ASC_NODE": 140.0776,
    "ARG_OF_PERICENTER": 42.4086,
    "MEAN_ANOMALY": 317.7825,
    "EPHEMERIS_TYPE": 0,
    "CLASSIFICATION_TYPE": "U",
    "NORAD_CAT_ID": 32958,
    "ELEMENT_SET_NO": 999,
    "REV_AT_EPOCH": 93989,
    "BSTAR": 0.000028234,
    "MEAN_MOTION_DOT": 1.6e-7,
    "MEAN_MOTION_DDOT": 0
   }
  },
  {
   "norad": 37214,
   "name": "FENGYUN 3B",
   "intl": "2010-059A",
   "group": "weather",
   "gcat": {
    "class": null,
    "category": null,
    "owner": null,
    "state": null
   },
   "omm": {
    "OBJECT_NAME": "FENGYUN 3B",
    "OBJECT_ID": "2010-059A",
    "EPOCH": "2026-07-18T20:47:22.095744",
    "MEAN_MOTION": 14.14847969,
    "ECCENTRICITY": 0.0023167,
    "INCLINATION": 98.9598,
    "RA_OF_ASC_NODE": 246.0124,
    "ARG_OF_PERICENTER": 96.7281,
    "MEAN_ANOMALY": 76.4219,
    "EPHEMERIS_TYPE": 0,
    "CLASSIFICATION_TYPE": "U",
    "NORAD_CAT_ID": 37214,
    "ELEMENT_SET_NO": 999,
    "REV_AT_EPOCH": 81190,
    "BSTAR": 0.00014241,
    "MEAN_MOTION_DOT": 0.00000231,
    "MEAN_MOTION_DDOT": 0
   }
  }
 ]
}
