FENGYUN 3A              
1 32958U 08026A   26199.83533047  .00000016  00000+0  28234-4 0  9992
2 32958  98.6886 140.0776 0009527  42.4086 317.7825 14.19576918939898
EWS-G3 (GOES 14)        
1 35491U 09033A   26199.71794373 -.00000367  00000+0  00000+0 0  9990
2 35491   1.7692  82.6512 0002060  39.5281 195.6580  1.00096577  6903
EWS-G2 (GOES 15)        
1 36411U 10008A   26199.88658522  .00000016  00000+0  00000+0 0  9990
2 36411   1.3630  82.4212 0005366  53.9943 182.7078  1.00269288 59959
FENGYUN 3B              
1 37214U 10059A   26199.86622796  .00000231  00000+0  14241-3 0  9995
2 37214  98.9598 246.0124 0023167  96.7281  76.4219 14.14847969811909
EXACTVIEW-1 (ADS-1B)    
1 38709U 12039C   26199.76754568  .00000040  00000+0  36924-4 0  9998
2 38709  98.9809 317.8756 0011944  82.2216 278.0318 14.24992745727203
DUBAISAT-2              
1 39419U 13066D   26199.87274862  .00001161  00000+0  74473-4 0  9990
2 39419  97.4581 189.1938 0009139 288.6106  71.4131 15.10386416691170
FENGYUN 2G              
1 40367U 14090A   26199.57077083 -.00000311  00000+0  00000+0 0  9992
2 40367   5.7165  72.4368 0004026 174.2061 354.6234  1.00279546 42310
ELEKTRO-L 2             
1 41105U 15074A   26199.40558459 -.00000128  00000+0  00000+0 0  9995
2 41105   6.7707  70.1389 0000957 220.4397 137.1429  1.00272087 38810
FENGYUN 2H              
1 43491U 18050A   26199.78239336 -.00000134  00000+0  00000+0 0  9990
2 43491   3.1110  78.7054 0002207 132.7913  85.8178  1.00266889 29757
EOS-4                   
1 51656U 22013A   26199.84996652  .00000345  00000+0  23368-4 0  9994
2 51656  97.5114 206.0159 0002126  88.6113 271.5361 15.12726523244271
